BEIDOU-2 IGSO-5         
1 37948U 11073A   26159.29027339 -.00000161  00000+0  00000+0 0  9998
2 37948  47.6957 271.6577 0113640 221.6704 319.6056  1.00275049 53043
LUCH-5A                 
1 37951U 11074B   26158.59534880 -.00000036  00000+0  00000+0 0  9990
2 37951   8.7288  73.9491 0002349  13.7811 189.5949  1.00269830 52957
BEIDOU-2 G5             
1 38091U 12008A   26159.14151937  .00000073  00000+0  00000+0 0  9994
2 38091   3.5504  69.7521 0009413 276.1223  20.2929  1.00270155 52271
BEIDOU-2 M3             
1 38250U 12018A   26159.06039762 -.00000055  00000+0  00000+0 0  9995
2 38250  55.7663 305.1829 0019923 274.8971  84.8667  1.86230161 95777
BEIDOU-2 M4             
1 38251U 12018B   26158.99268355 -.00000055  00000+0  00000+0 0  9999
2 38251  55.6665 304.3996 0011102 277.5873  82.2781  1.86229806 95770
SES-5                   
1 38652U 12036A   26158.77434376  .00000049  00000+0  00000+0 0  9990
2 38652   0.0515 307.7529 0001982 128.4245 103.7453  1.00272808 44364
BEIDOU-2 M6             
1 38775U 12050B   26158.16551005 -.00000039  00000+0  00000+0 0  9994
2 38775  56.5356  63.2259 0013887 355.8219   4.1945  1.86230975 93128
GSAT-10                 
1 38779U 12051B   26158.14817360 -.00000151  00000+0  00000+0 0  9991
2 38779   0.0171 262.4199 0008003 186.5141 302.9972  1.00271795 49990
NAVSTAR 67 (USA 239)    
1 38833U 12053A   26158.34489778  .00000096  00000+0  00000+0 0  9991
2 38833  53.5842 144.0025 0179750  65.6197 296.2414  2.00567343 99245
GSAT0103 (GALILEO-FM3)  
1 38857U 12055A   26156.15727767  .00000018  00000+0  00000+0 0  9993
2 38857  55.7989 101.8756 0005166 302.6849  57.2312  1.70473498 84807
BEIDOU-2 G6             
1 38953U 12059A   26159.03879343 -.00000161  00000+0  00000+0 0  9992
2 38953   4.3975  73.6191 0010358 324.5073 316.2719  1.00274821 49812
LUCH-5B                 
1 38977U 12061A   26158.98402782 -.00000125  00000+0  00000+0 0  9993
2 38977  10.4610  49.9704 0001830 137.7633  46.5991  1.00273999 49516
COSMOS 2485 [GLONASS-M] 
1 39155U 13019A   26157.11703028 -.00000007  00000+0  00000+0 0  9996
2 39155  65.4139  73.9758 0023482 234.9271 124.8751  2.13103501102040
NAVSTAR 68 (USA 242)    
1 39166U 13023A   26158.21158305 -.00000031  00000+0  00000+0 0  9994
2 39166  54.5121 269.3802 0141608  50.9995 310.2743  2.00563548 95683
IRNSS-1A                
1 39199U 13034A   26142.85947303  .00000059  00000+0  00000+0 0  9998
2 39199  35.6649  64.2334 0016618 185.3754 355.4646  1.00280263 47111
NAVSTAR 69 (USA 248)    
1 39533U 14008A   26159.21030354  .00000106  00000+0  00000+0 0  9992
2 39533  53.6532 149.6858 0084237 231.1306 128.1213  2.00559220 89505
ASTRA 5B                
1 39617U 14011B   26159.27709999  .00000153  00000+0  00000+0 0  9995
2 39617   0.0562 318.3656 0002110 106.7293 314.8327  1.00270013 44577
COSMOS 2492 [GLONASS-M] 
1 39620U 14012A   26158.01443692 -.00000028  00000+0  00000+0 0  9998
2 39620  65.3041 314.2816 0010534 326.6217  33.3091  2.13103539 95028
IRNSS-1B                
1 39635U 14017A   26139.86086405  .00000103  00000+0  00000+0 0  9999
2 39635  28.9733 240.8911 0024226 185.2284 176.5740  1.00280229 44519
LUCH-5V                 
1 39727U 14023A   26159.14845273 -.00000253  00000+0  00000+0 0  9994
2 39727   5.1103  69.8404 0002834  31.0907 303.7417  1.00267721 44265
NAVSTAR 70 (USA 251)    
1 39741U 14026A   26158.98714032 -.00000057  00000+0  00000+0 0  9994
2 39741  56.5029 331.8757 0038249 326.7038  33.0643  2.00561693 88357
COSMOS 2500 [GLONASS-M] 
1 40001U 14032A   26156.30730628 -.00000032  00000+0  00000+0 0  9998
2 40001  65.2399 314.0875 0006921 182.6987 177.2913  2.13106228 93207
NAVSTAR 71 (USA 256)    
1 40105U 14045A   26159.07880508  .00000005  00000+0  00000+0 0  9996
2 40105  55.3475  88.8279 0032920 118.3764 241.9512  2.00557808 85898
GSAT0201 (GALILEO 5)    
1 40128U 14050A   26159.25417583 -.00000052  00000+0  00000+0 0  9999
2 40128  48.8853 273.8028 1673172 179.0435 181.3650  1.85520056 78156
GSAT0202 (GALILEO 6)    
1 40129U 14050B   26158.43178243 -.00000050  00000+0  00000+0 0  9994
2 40129  48.9030 272.9219 1674353 179.7431 180.3996  1.85520607 80306
IRNSS-1C                
1 40269U 14061A   26158.92307742 -.00000146  00000+0  00000+0 0  9999
2 40269   6.4950  89.1037 0022627   1.3950 221.1503  1.00270792 42594
NAVSTAR 72 (USA 258)    
1 40294U 14068A   26157.95235535 -.00000066  00000+0  00000+0 0  9997
2 40294  56.9806  31.3491 0066821  70.2149 290.5590  2.00575638 85001
COSMOS 2501 [GLONASS-K] 
1 40315U 14075A   26158.44627953  .00000089  00000+0  00000+0 0  9997
2 40315  63.6157 190.7092 0022453 212.1343 147.7942  2.13101441 89641
NAVSTAR 73 (USA 260)    
1 40534U 15013A   26158.09036370  .00000057  00000+0  00000+0 0  9996
2 40534  53.1686 204.5953 0109348  40.1244 320.7540  2.00552172 81627
GSAT0203 (GALILEO 7)    
1 40544U 15017A   26158.82751306 -.00000063  00000+0  00000+0 0  9993
2 40544  56.7903 341.8507 0002088 280.9865  79.0049  1.70476158 69040
GSAT0204 (GALILEO 8)    
1 40545U 15017B   26156.15035755 -.00000069  00000+0  00000+0 0  9997
2 40545  56.7982 341.9422 0001822 253.1460 106.8459  1.70475724 32045
